NORAD_CAT_ID,OBJECT_NAME,OBJECT_TYPE,EPOCH,MEAN_MOTION,ECCENTRICITY,INCLINATION,RA_OF_ASC_NODE,ARG_OF_PERICENTER,MEAN_ANOMALY,BSTAR,MEAN_MOTION_DOT,MEAN_MOTION_DDOT,TLE_LINE0,TLE_LINE1,TLE_LINE2,SEMIMAJOR_AXIS,PERIOD,APOGEE,PERIGEE,DECAYED
49733.0,STARLINK-3252,PAYLOAD,2022-11-05 12:09:04,15.08823873,0.000191,53.2161,236.7346,44.2958,315.8187,-0.00038364,-6.386e-05,0.0,0 STARLINK-3252,1 49733U 21115K   22309.50630647 -.00006386  00000-0 -38364-3 0  9995,2 49733  53.2161 236.7346 0001910  44.2958 315.8187 15.08823873 51183,6917.93,95.439,541.116,538.4730000000002,0.0
49733.0,STARLINK-3252,PAYLOAD,2022-11-06 04:02:57,15.08814846,0.0001745,53.2164,233.7583,43.7997,316.3133,-0.00010224,-1.914e-05,0.0,0 STARLINK-3252,1 49733U 21115K   22310.16872170 -.00001914  00000-0 -10224-3 0  9995,2 49733  53.2164 233.7583 0001745  43.7997 316.3133 15.08814846 52390,6917.956999999999,95.439,541.029,538.615,0.0
49733.0,STARLINK-3252,PAYLOAD,2022-11-06 07:13:43,15.08821829,0.0001933,53.2164,233.1655,46.2749,313.8403,0.00010661,1.408e-05,0.0,0 STARLINK-3252,1 49733U 21115K   22310.30120252  .00001408  00000-0  10661-3 0  9999,2 49733  53.2164 233.1655 0001933  46.2749 313.8403 15.08821829 51307,6917.936,95.439,541.138,538.464,0.0
49733.0,STARLINK-3252,PAYLOAD,2022-11-07 11:50:41,15.08828064,0.0001877,53.2162,227.813,47.1359,312.9791,0.00017098,2.433e-05,0.0,0 STARLINK-3252,1 49733U 21115K   22311.49353455  .00002433  00000-0  17098-3 0  9993,2 49733  53.2162 227.8130 0001877  47.1359 312.9791 15.08828064 52597,6917.917,95.438,541.08,538.4830000000002,0.0
49733.0,STARLINK-3252,PAYLOAD,2022-11-07 21:22:59,15.08847361,0.000175,53.2167,226.0286,44.8096,315.3037,0.0006206,9.605e-05,0.0,0 STARLINK-3252,1 49733U 21115K   22311.89097064  .00009605  00000-0  62060-3 0  9995,2 49733  53.2167 226.0286 0001750  44.8096 315.3037 15.08847361 51542,6917.858,95.437,540.934,538.512,0.0
49733.0,STARLINK-3252,PAYLOAD,2022-11-08 06:55:17,15.08882302,0.0001881,53.2162,224.2452,46.0053,314.1094,0.0014911,0.0002355,0.0,0 STARLINK-3252,1 49733U 21115K   22312.28840074  .00023550  00000-0  14911-2 0  9992,2 49733  53.2162 224.2452 0001881  46.0053 314.1094 15.08882302 52718,6917.751,95.435,540.9169999999998,538.315,0.0
49733.0,STARLINK-3252,PAYLOAD,2022-11-08 22:49:07,15.08888781,0.0002732,53.2161,221.2691,64.4469,295.6805,0.00072101,0.00011221,0.0,0 STARLINK-3252,1 49733U 21115K   22312.95078592  .00011221  00000-0  72101-3 0  9992,2 49733  53.2161 221.2691 0002732  64.4469 295.6805 15.08888781 52811,6917.731,95.434,541.486,537.706,0.0
49733.0,STARLINK-3252,PAYLOAD,2022-11-09 11:32:11,15.08878386,0.0002695,53.2176,218.8921,43.6918,316.4287,0.0001326,1.825e-05,0.0,0 STARLINK-3252,1 49733U 21115K   22313.48069118  .00001825  00000-0  13260-3 0  9995,2 49733  53.2176 218.8921 0002695  43.6918 316.4287 15.08878386 51782,6917.763000000001,95.435,541.492,537.764,0.0
49733.0,STARLINK-3252,PAYLOAD,2022-11-09 21:04:30,15.08837654,0.0001911,53.2166,217.1094,34.5144,325.5972,-0.0009467,-0.00015323,0.0,0 STARLINK-3252,1 49733U 21115K   22313.87813336 -.00015323  00000-0 -94670-3 0  9991,2 49733  53.2166 217.1094 0001911  34.5144 325.5972 15.08837654 51846,6917.888000000001,95.438,541.075,538.431,0.0
49733.0,STARLINK-3252,PAYLOAD,2022-11-10 00:15:17,15.08839274,0.0002101,53.2165,216.5132,39.6151,320.4994,-0.00068709,-0.00011207,0.0,0 STARLINK-3252,1 49733U 21115K   22314.01061350 -.00011207  00000-0 -68709-3 0  9990,2 49733  53.2165 216.5132 0002101  39.6151 320.4994 15.08839274 52970,6917.8830000000025,95.438,541.201,538.294,0.0
49733.0,STARLINK-3252,PAYLOAD,2022-11-10 03:26:03,15.08828927,0.0002009,53.2165,215.9185,40.1608,319.9532,-0.00046577,-7.691e-05,0.0,0 STARLINK-3252,1 49733U 21115K   22314.14309442 -.00007691  00000-0 -46577-3 0  9992,2 49733  53.2165 215.9185 0002009  40.1608 319.9532 15.08828927 51885,6917.9140000000025,95.438,541.169,538.389,0.0
49733.0,STARLINK-3252,PAYLOAD,2022-11-10 17:44:32,15.0881406,0.000219,53.2159,213.2411,41.1347,318.981,0.00017628,2.516e-05,0.0,0 STARLINK-3252,1 49733U 21115K   22314.73926893  .00002516  00000-0  17628-3 0  9996,2 49733  53.2159 213.2411 0002190  41.1347 318.9810 15.08814060 53088,6917.96,95.439,541.34,538.31,0.0
49733.0,STARLINK-3252,PAYLOAD,2022-11-10 20:55:19,15.08823348,0.0002115,53.2161,212.6458,39.2089,320.9056,6.7477e-05,7.85e-06,0.0,0 STARLINK-3252,1 49733U 21115K   22314.87174874  .00000785  00000-0  67477-4 0  9999,2 49733  53.2161 212.6458 0002115  39.2089 320.9056 15.08823348 51995,6917.931,95.439,541.259,538.3330000000002,0.0
49733.0,STARLINK-3252,PAYLOAD,2022-11-11 01:41:28,15.08824883,0.0002167,53.2157,211.7545,38.5295,321.5852,0.00036078,5.456e-05,0.0,0 STARLINK-3252,1 49733U 21115K   22315.07047198  .00005456  00000-0  36078-3 0  9992,2 49733  53.2157 211.7545 0002167  38.5295 321.5852 15.08824883 53139,6917.927,95.439,541.2909999999998,538.2919999999998,0.0
49733.0,STARLINK-3252,PAYLOAD,2022-11-11 20:46:07,15.0883104,0.0002153,53.2156,208.1865,37.5799,322.5343,0.00040437,6.152e-05,0.0,0 STARLINK-3252,1 49733U 21115K   22315.86535956  .00006152  00000-0  40437-3 0  9991,2 49733  53.2156 208.1865 0002153  37.5799 322.5343 15.08831040 52145,6917.908,95.438,541.262,538.283,0.0
49733.0,STARLINK-3252,PAYLOAD,2022-11-12 09:29:11,15.08847418,0.0002112,53.2165,205.8102,38.4452,321.6690000000001,0.00061849,9.571e-05,0.0,0 STARLINK-3252,1 49733U 21115K   22316.39527775  .00009571  00000-0  61849-3 0  9998,2 49733  53.2165 205.8102 0002112  38.4452 321.6690 15.08847418 53337,6917.858,95.437,541.184,538.262,0.0
49733.0,STARLINK-3252,PAYLOAD,2022-11-12 20:36:53,15.08845762,0.0002083,53.2168,203.73,40.6531,319.4616,0.00031681,4.758e-05,0.0,0 STARLINK-3252,1 49733U 21115K   22316.85895704  .00004758  00000-0  31681-3 0  9992,2 49733  53.2168 203.7300 0002083  40.6531 319.4616 15.08845762 52294,6917.863,95.437,541.169,538.2869999999998,0.0
49733.0,STARLINK-3252,PAYLOAD,2022-11-13 01:23:03,15.08848107,0.0002127,53.2163,202.8367,38.8717,321.2428,0.00030126,4.511e-05,0.0,0 STARLINK-3252,1 49733U 21115K   22317.05767543  .00004511  00000-0  30126-3 0  9994,2 49733  53.2163 202.8367 0002127  38.8717 321.2428 15.08848107 53431,6917.856,95.437,541.192,538.249,0.0
49733.0,STARLINK-3252,PAYLOAD,2022-11-13 17:16:55,15.08833977,0.0002327,53.2153,199.8606,38.4738,321.642,-6.3019e-05,-1.291e-05,0.0,0 STARLINK-3252,1 49733U 21115K   22317.72008165 -.00001291  00000-0 -63019-4 0  9998,2 49733  53.2153 199.8606 0002327  38.4738 321.6420 15.08833977 53538,6917.899,95.438,541.374,538.154,0.0
49733.0,STARLINK-3252,PAYLOAD,2022-11-14 09:10:46,15.08837984,0.000219,53.2154,196.8873,39.6878,320.4274,8.4624e-05,1.059e-05,0.0,0 STARLINK-3252,1 49733U 21115K   22318.38248395  .00001059  00000-0  84624-4 0  9997,2 49733  53.2154 196.8873 0002190  39.6878 320.4274 15.08837984 52522,6917.887,95.438,541.2669999999998,538.237,0.0
49733.0,STARLINK-3252,PAYLOAD,2022-11-14 21:53:52,15.08828587,0.0002181,53.216,194.5084,45.517,314.6,8.6772e-06,-1.5e-06,0.0,0 STARLINK-3252,1 49733U 21115K   22318.91241108 -.00000150  00000-0  86772-5 0  9990,2 49733  53.2160 194.5084 0002181  45.5170 314.6000 15.08828587 53712,6917.915,95.438,541.289,538.271,0.0
49733.0,STARLINK-3252,PAYLOAD,2022-11-15 09:01:34,15.08838792,0.0002244,53.2162,192.4273,40.8533,319.2627,6.3941e-05,7.29e-06,0.0,0 STARLINK-3252,1 49733U 21115K   22319.37608945  .00000729  00000-0  63941-4 0  9990,2 49733  53.2162 192.4273 0002244  40.8533 319.2627 15.08838792 53784,6917.884,95.438,541.3009999999998,538.197,0.0
49733.0,STARLINK-3252,PAYLOAD,2022-11-15 20:09:16,15.08841458,0.0002231,53.2155,190.3457,42.0689,318.0474,0.00028155,4.196e-05,0.0,0 STARLINK-3252,1 49733U 21115K   22319.83977109  .00004196  00000-0  28155-3 0  9991,2 49733  53.2155 190.3457 0002231  42.0689 318.0474 15.08841458 52744,6917.876,95.437,541.284,538.198,0.0
49733.0,STARLINK-3252,PAYLOAD,2022-11-16 04:06:11,15.08846271,0.0002287,53.2152,188.8593,42.2391,317.8777,0.00032733,4.926e-05,0.0,0 STARLINK-3252,1 49733U 21115K   22320.17096979  .00004926  00000-0  32733-3 0  9995,2 49733  53.2152 188.8593 0002287  42.2391 317.8777 15.08846271 52793,6917.861,95.437,541.308,538.144,0.0
49733.0,STARLINK-3252,PAYLOAD,2022-11-16 21:35:26,15.08849619,0.0002369,53.2154,185.5884,42.9403,317.1774,0.0002933,4.384e-05,0.0,0 STARLINK-3252,1 49733U 21115K   22320.89960720  .00004384  00000-0  29330-3 0  9995,2 49733  53.2154 185.5884 0002369  42.9403 317.1774 15.08849619 54010,6917.851,95.437,541.355,538.077,0.0
49733.0,STARLINK-3252,PAYLOAD,2022-11-17 02:21:35,15.08842269,0.0002276,53.2155,184.6961,42.212,317.9047,9.7974e-05,1.271e-05,0.0,0 STARLINK-3252,1 49733U 21115K   22321.09832882  .00001271  00000-0  97974-4 0  9997,2 49733  53.2155 184.6961 0002276  42.2120 317.9047 15.08842269 54041,6917.873000000001,95.437,541.313,538.164,0.0
49733.0,STARLINK-3252,PAYLOAD,2022-11-17 19:50:49,15.08851007,0.0002293,53.2157,181.4252,43.238,316.8792,0.0001696,2.413e-05,0.0,0 STARLINK-3252,1 49733U 21115K   22321.82696259  .00002413  00000-0  16960-3 0  9998,2 49733  53.2157 181.4252 0002293  43.2380 316.8792 15.08851007 53043,6917.847,95.437,541.298,538.125,0.0
49733.0,STARLINK-3252,PAYLOAD,2022-11-18 00:36:58,15.08847818,0.0002369,53.2156,180.5336,41.7988,318.3185,6.527e-05,7.51e-06,0.0,0 STARLINK-3252,1 49733U 21115K   22322.02568272  .00000751  00000-0  65270-4 0  9996,2 49733  53.2156 180.5336 0002369  41.7988 318.3185 15.08847818 53077,6917.856,95.437,541.36,538.0830000000002,0.0
49733.0,STARLINK-3252,PAYLOAD,2022-11-18 21:17:00,15.08834304,0.0002364,53.2156,176.6677,43.4821,316.6357,3.535e-05,2.74e-06,0.0,0 STARLINK-3252,1 49733U 21115K   22322.88681021  .00000274  00000-0  35350-4 0  9994,2 49733  53.2156 176.6677 0002364  43.4821 316.6357 15.08834304 53204,6917.898,95.438,541.398,538.127,0.0
